ORBCOMM FM103           
1 40091U 14040F   25247.04935783  .00001197  00000+0  29288-3 0  9991
2 40091  47.0072   5.3403 0002433 271.0608  88.9999 14.58280859575613
ORBCOMM FM114           
1 41179U 15081A   25247.20566443  .00000945  00000+0  23880-3 0  9998
2 41179  47.0022 273.6075 0002509 325.4088  34.6634 14.58317515516003
ORBCOMM FM119           
1 41180U 15081B   25247.19736083  .00001340  00000+0  32359-3 0  9998
2 41180  46.9996 182.9801 0001018   7.8806 352.2096 14.58253110517254
ORBCOMM FM105           
1 41181U 15081C   25247.17129746  .00000610  00000+0  21667-3 0  9998
2 41181  47.0006 195.7359 0002539 306.0985  53.9660 14.45277556512174
ORBCOMM FM110           
1 41182U 15081D   25247.19792841  .00001026  00000+0  25615-3 0  9992
2 41182  47.0014 273.1824 0002947 224.9335 135.1312 14.58326187515878
ORBCOMM FM118           
1 41183U 15081E   25247.09303271  .00000991  00000+0  24876-3 0  9995
2 41183  47.0034 273.9300 0002540 180.4906 179.5978 14.58309752515966
ORBCOMM FM112           
1 41184U 15081F   25247.23685295  .00001550  00000+0  36789-3 0  9999
2 41184  46.9983 181.8759 0002033 331.8299  28.2477 14.58360450517202
ORBCOMM FM113           
1 41185U 15081G   25247.21374760  .00001379  00000+0  33137-3 0  9993
2 41185  47.0000 182.3222 0001681 341.2091  18.8732 14.58356529517187
