<?xml version="1.0" encoding="UTF-8"?>
<ndm xmlns:xsi="http://www.w3.org/2001/XMLSchema-instance" xsi:noNamespaceSchemaLocation="https://sanaregistry.org/r/ndmxml_unqualified/ndmxml-2.0.0-master-2.0.xsd">
<omm id="CCSDS_OMM_VERS" version="2.0">
<header><CREATION_DATE/><ORIGINATOR/></header><body><segment><metadata><OBJECT_NAME>ORBCOMM FM103</OBJECT_NAME><OBJECT_ID>2014-040F</OBJECT_ID><CENTER_NAME>EARTH</CENTER_NAME><REF_FRAME>TEME</REF_FRAME><TIME_SYSTEM>UTC</TIME_SYSTEM><MEAN_ELEMENT_THEORY>SGP4</MEAN_ELEMENT_THEORY></metadata><data><meanElements><EPOCH>2025-09-04T01:11:04.516512</EPOCH><MEAN_MOTION>14.58280859</MEAN_MOTION><ECCENTRICITY>.00024338</ECCENTRICITY><INCLINATION>47.0072</INCLINATION><RA_OF_ASC_NODE>5.3403</RA_OF_ASC_NODE><ARG_OF_PERICENTER>271.0608</ARG_OF_PERICENTER><MEAN_ANOMALY>88.9999</MEAN_ANOMALY></meanElements><tleParameters><EPHEMERIS_TYPE>0</EPHEMERIS_TYPE><CLASSIFICATION_TYPE>U</CLASSIFICATION_TYPE><NORAD_CAT_ID>40091</NORAD_CAT_ID><ELEMENT_SET_NO>999</ELEMENT_SET_NO><REV_AT_EPOCH>57561</REV_AT_EPOCH><BSTAR>.29288354E-3</BSTAR><MEAN_MOTION_DOT>.1197E-4</MEAN_MOTION_DOT><MEAN_MOTION_DDOT>0</MEAN_MOTION_DDOT></tleParameters></data></segment></body></omm>
<omm id="CCSDS_OMM_VERS" version="2.0">
<header><CREATION_DATE/><ORIGINATOR/></header><body><segment><metadata><OBJECT_NAME>ORBCOMM FM114</OBJECT_NAME><OBJECT_ID>2015-081A</OBJECT_ID><CENTER_NAME>EARTH</CENTER_NAME><REF_FRAME>TEME</REF_FRAME><TIME_SYSTEM>UTC</TIME_SYSTEM><MEAN_ELEMENT_THEORY>SGP4</MEAN_ELEMENT_THEORY></metadata><data><meanElements><EPOCH>2025-09-04T04:56:09.406752</EPOCH><MEAN_MOTION>14.58317515</MEAN_MOTION><ECCENTRICITY>.0002509</ECCENTRICITY><INCLINATION>47.0022</INCLINATION><RA_OF_ASC_NODE>273.6075</RA_OF_ASC_NODE><ARG_OF_PERICENTER>325.4088</ARG_OF_PERICENTER><MEAN_ANOMALY>34.6634</MEAN_ANOMALY></meanElements><tleParameters><EPHEMERIS_TYPE>0</EPHEMERIS_TYPE><CLASSIFICATION_TYPE>U</CLASSIFICATION_TYPE><NORAD_CAT_ID>41179</NORAD_CAT_ID><ELEMENT_SET_NO>999</ELEMENT_SET_NO><REV_AT_EPOCH>51600</REV_AT_EPOCH><BSTAR>.23879563E-3</BSTAR><MEAN_MOTION_DOT>.945E-5</MEAN_MOTION_DOT><MEAN_MOTION_DDOT>0</MEAN_MOTION_DDOT></tleParameters></data></segment></body></omm>
<omm id="CCSDS_OMM_VERS" version="2.0">
<header><CREATION_DATE/><ORIGINATOR/></header><body><segment><metadata><OBJECT_NAME>ORBCOMM FM119</OBJECT_NAME><OBJECT_ID>2015-081B</OBJECT_ID><CENTER_NAME>EARTH</CENTER_NAME><REF_FRAME>TEME</REF_FRAME><TIME_SYSTEM>UTC</TIME_SYSTEM><MEAN_ELEMENT_THEORY>SGP4</MEAN_ELEMENT_THEORY></metadata><data><meanElements><EPOCH>2025-09-04T04:44:11.975712</EPOCH><MEAN_MOTION>14.58253110</MEAN_MOTION><ECCENTRICITY>.00010181</ECCENTRICITY><INCLINATION>46.9996</INCLINATION><RA_OF_ASC_NODE>182.9801</RA_OF_ASC_NODE><ARG_OF_PERICENTER>7.8806</ARG_OF_PERICENTER><MEAN_ANOMALY>352.2096</MEAN_ANOMALY></meanElements><tleParameters><EPHEMERIS_TYPE>0</EPHEMERIS_TYPE><CLASSIFICATION_TYPE>U</CLASSIFICATION_TYPE><NORAD_CAT_ID>41180</NORAD_CAT_ID><ELEMENT_SET_NO>999</ELEMENT_SET_NO><REV_AT_EPOCH>51725</REV_AT_EPOCH><BSTAR>.32358898E-3</BSTAR><MEAN_MOTION_DOT>.134E-4</MEAN_MOTION_DOT><MEAN_MOTION_DDOT>0</MEAN_MOTION_DDOT></tleParameters></data></segment></body></omm>
<omm id="CCSDS_OMM_VERS" version="2.0">
<header><CREATION_DATE/><ORIGINATOR/></header><body><segment><metadata><OBJECT_NAME>ORBCOMM FM105</OBJECT_NAME><OBJECT_ID>2015-081C</OBJECT_ID><CENTER_NAME>EARTH</CENTER_NAME><REF_FRAME>TEME</REF_FRAME><TIME_SYSTEM>UTC</TIME_SYSTEM><MEAN_ELEMENT_THEORY>SGP4</MEAN_ELEMENT_THEORY></metadata><data><meanElements><EPOCH>2025-09-04T04:06:40.100544</EPOCH><MEAN_MOTION>14.45277556</MEAN_MOTION><ECCENTRICITY>.00025399</ECCENTRICITY><INCLINATION>47.0006</INCLINATION><RA_OF_ASC_NODE>195.7359</RA_OF_ASC_NODE><ARG_OF_PERICENTER>306.0985</ARG_OF_PERICENTER><MEAN_ANOMALY>53.9660</MEAN_ANOMALY></meanElements><tleParameters><EPHEMERIS_TYPE>0</EPHEMERIS_TYPE><CLASSIFICATION_TYPE>U</CLASSIFICATION_TYPE><NORAD_CAT_ID>41181</NORAD_CAT_ID><ELEMENT_SET_NO>999</ELEMENT_SET_NO><REV_AT_EPOCH>51217</REV_AT_EPOCH><BSTAR>.21667197E-3</BSTAR><MEAN_MOTION_DOT>.61E-5</MEAN_MOTION_DOT><MEAN_MOTION_DDOT>0</MEAN_MOTION_DDOT></tleParameters></data></segment></body></omm>
<omm id="CCSDS_OMM_VERS" version="2.0">
<header><CREATION_DATE/><ORIGINATOR/></header><body><segment><metadata><OBJECT_NAME>ORBCOMM FM110</OBJECT_NAME><OBJECT_ID>2015-081D</OBJECT_ID><CENTER_NAME>EARTH</CENTER_NAME><REF_FRAME>TEME</REF_FRAME><TIME_SYSTEM>UTC</TIME_SYSTEM><MEAN_ELEMENT_THEORY>SGP4</MEAN_ELEMENT_THEORY></metadata><data><meanElements><EPOCH>2025-09-04T04:45:01.014624</EPOCH><MEAN_MOTION>14.58326187</MEAN_MOTION><ECCENTRICITY>.00029475</ECCENTRICITY><INCLINATION>47.0014</INCLINATION><RA_OF_ASC_NODE>273.1824</RA_OF_ASC_NODE><ARG_OF_PERICENTER>224.9335</ARG_OF_PERICENTER><MEAN_ANOMALY>135.1312</MEAN_ANOMALY></meanElements><tleParameters><EPHEMERIS_TYPE>0</EPHEMERIS_TYPE><CLASSIFICATION_TYPE>U</CLASSIFICATION_TYPE><NORAD_CAT_ID>41182</NORAD_CAT_ID><ELEMENT_SET_NO>999</ELEMENT_SET_NO><REV_AT_EPOCH>51587</REV_AT_EPOCH><BSTAR>.25614867E-3</BSTAR><MEAN_MOTION_DOT>.1026E-4</MEAN_MOTION_DOT><MEAN_MOTION_DDOT>0</MEAN_MOTION_DDOT></tleParameters></data></segment></body></omm>
<omm id="CCSDS_OMM_VERS" version="2.0">
<header><CREATION_DATE/><ORIGINATOR/></header><body><segment><metadata><OBJECT_NAME>ORBCOMM FM118</OBJECT_NAME><OBJECT_ID>2015-081E</OBJECT_ID><CENTER_NAME>EARTH</CENTER_NAME><REF_FRAME>TEME</REF_FRAME><TIME_SYSTEM>UTC</TIME_SYSTEM><MEAN_ELEMENT_THEORY>SGP4</MEAN_ELEMENT_THEORY></metadata><data><meanElements><EPOCH>2025-09-04T02:13:58.026144</EPOCH><MEAN_MOTION>14.58309752</MEAN_MOTION><ECCENTRICITY>.00025403</ECCENTRICITY><INCLINATION>47.0034</INCLINATION><RA_OF_ASC_NODE>273.9300</RA_OF_ASC_NODE><ARG_OF_PERICENTER>180.4906</ARG_OF_PERICENTER><MEAN_ANOMALY>179.5978</MEAN_ANOMALY></meanElements><tleParameters><EPHEMERIS_TYPE>0</EPHEMERIS_TYPE><CLASSIFICATION_TYPE>U</CLASSIFICATION_TYPE><NORAD_CAT_ID>41183</NORAD_CAT_ID><ELEMENT_SET_NO>999</ELEMENT_SET_NO><REV_AT_EPOCH>51596</REV_AT_EPOCH><BSTAR>.24875652E-3</BSTAR><MEAN_MOTION_DOT>.991E-5</MEAN_MOTION_DOT><MEAN_MOTION_DDOT>0</MEAN_MOTION_DDOT></tleParameters></data></segment></body></omm>
<omm id="CCSDS_OMM_VERS" version="2.0">
<header><CREATION_DATE/><ORIGINATOR/></header><body><segment><metadata><OBJECT_NAME>ORBCOMM FM112</OBJECT_NAME><OBJECT_ID>2015-081F</OBJECT_ID><CENTER_NAME>EARTH</CENTER_NAME><REF_FRAME>TEME</REF_FRAME><TIME_SYSTEM>UTC</TIME_SYSTEM><MEAN_ELEMENT_THEORY>SGP4</MEAN_ELEMENT_THEORY></metadata><data><meanElements><EPOCH>2025-09-04T05:41:04.094880</EPOCH><MEAN_MOTION>14.58360450</MEAN_MOTION><ECCENTRICITY>.00020337</ECCENTRICITY><INCLINATION>46.9983</INCLINATION><RA_OF_ASC_NODE>181.8759</RA_OF_ASC_NODE><ARG_OF_PERICENTER>331.8299</ARG_OF_PERICENTER><MEAN_ANOMALY>28.2477</MEAN_ANOMALY></meanElements><tleParameters><EPHEMERIS_TYPE>0</EPHEMERIS_TYPE><CLASSIFICATION_TYPE>U</CLASSIFICATION_TYPE><NORAD_CAT_ID>41184</NORAD_CAT_ID><ELEMENT_SET_NO>999</ELEMENT_SET_NO><REV_AT_EPOCH>51720</REV_AT_EPOCH><BSTAR>.36788576E-3</BSTAR><MEAN_MOTION_DOT>.155E-4</MEAN_MOTION_DOT><MEAN_MOTION_DDOT>0</MEAN_MOTION_DDOT></tleParameters></data></segment></body></omm>
<omm id="CCSDS_OMM_VERS" version="2.0">
<header><CREATION_DATE/><ORIGINATOR/></header><body><segment><metadata><OBJECT_NAME>ORBCOMM FM113</OBJECT_NAME><OBJECT_ID>2015-081G</OBJECT_ID><CENTER_NAME>EARTH</CENTER_NAME><REF_FRAME>TEME</REF_FRAME><TIME_SYSTEM>UTC</TIME_SYSTEM><MEAN_ELEMENT_THEORY>SGP4</MEAN_ELEMENT_THEORY></metadata><data><meanElements><EPOCH>2025-09-04T05:07:47.792640</EPOCH><MEAN_MOTION>14.58356529</MEAN_MOTION><ECCENTRICITY>.00016816</ECCENTRICITY><INCLINATION>47.0000</INCLINATION><RA_OF_ASC_NODE>182.3222</RA_OF_ASC_NODE><ARG_OF_PERICENTER>341.2091</ARG_OF_PERICENTER><MEAN_ANOMALY>18.8732</MEAN_ANOMALY></meanElements><tleParameters><EPHEMERIS_TYPE>0</EPHEMERIS_TYPE><CLASSIFICATION_TYPE>U</CLASSIFICATION_TYPE><NORAD_CAT_ID>41185</NORAD_CAT_ID><ELEMENT_SET_NO>999</ELEMENT_SET_NO><REV_AT_EPOCH>51718</REV_AT_EPOCH><BSTAR>.33137471E-3</BSTAR><MEAN_MOTION_DOT>.1379E-4</MEAN_MOTION_DOT><MEAN_MOTION_DDOT>0</MEAN_MOTION_DDOT></tleParameters></data></segment></body></omm>

</ndm>
